     2.100          NAVIGATION                              RINEX VERSION / TYPE
fic2rin                                 04/13/2016 00:19:49 PGM / RUN BY / DATE
                                                            END OF HEADER
12 16  4 12 12  0  0.0  .376023352146D-03  .136424205266D-11  .000000000000D+00
     .760000000000D+02 -.155312500000D+02  .403338229228D-08 -.798155983772D+00
    -.834465026855D-06  .607226125430D-02  .377744436264D-05  .515375043678D+04
     .216000000000D+06  .104308128357D-06  .282732647057D+01  .154599547386D-06
     .990498647593D+00  .321031250000D+03  .710849857887D+00 -.812426697976D-08
    -.121076471892D-09  .100000000000D+01  .189200000000D+04  .000000000000D+00
     .240000000000D+01  .000000000000D+00 -.125728547573D-07  .760000000000D+02
     .208806000000D+06  .400000000000D+01
14 16  4 12 12  0  0.0 -.792229548097D-05 -.216004991671D-11  .000000000000D+00
     .510000000000D+02  .318437500000D+02  .435839583039D-08  .243678341998D+01
     .153481960297D-05  .845244072843D-02  .998564064503D-05  .515400307274D+04
     .216000000000D+06  .111758708954D-07  .757050804788D+00 -.113621354103D-06
     .964443359771D+00  .185343750000D+03 -.196702605887D+01 -.777996692399D-08
    -.373229832235D-09  .100000000000D+01  .189200000000D+04  .000000000000D+00
     .240000000000D+01  .000000000000D+00 -.931322574615D-08  .510000000000D+02
     .208806000000D+06  .400000000000D+01
18 16  4 12 12  0  0.0  .503845512867D-03  .420641299570D-11  .000000000000D+00
     .540000000000D+02 -.456250000000D+01  .567702218505D-08 -.220025447713D+01
    -.206753611565D-06  .169995024335D-01  .582076609135D-05  .515367015648D+04
     .216000000000D+06  .221654772758D-06 -.397121611789D+00  .108033418655D-06
     .925217385372D+00  .241875000000D+03 -.189715025227D+01 -.837213444729D-08
     .156792245312D-09  .100000000000D+01  .189200000000D+04  .000000000000D+00
     .240000000000D+01  .000000000000D+00 -.121071934700D-07  .540000000000D+02
     .208806000000D+06  .400000000000D+01
19 16  4 12 12  0  0.0 -.525605864823D-03 -.113686837722D-12  .000000000000D+00
     .110000000000D+02 -.851250000000D+02  .410124226177D-08 -.623411273548D+00
    -.406429171562D-05  .107692445163D-01  .894628465176D-05  .515361461830D+04
     .216000000000D+06  .119209289551D-06 -.236659548956D+01  .171363353729D-06
     .973044073134D+00  .212375000000D+03  .738904966426D+00 -.803962059675D-08
     .124648049234D-09  .100000000000D+01  .189200000000D+04  .000000000000D+00
     .240000000000D+01  .000000000000D+00 -.149011611938D-07  .110000000000D+02
     .208806000000D+06  .400000000000D+01
20 16  4 12 12  0  0.0  .405471306294D-03  .250111042988D-11  .000000000000D+00
     .190000000000D+02 -.246875000000D+01  .576774024953D-08  .175019976401D+01
    -.195577740669D-06  .467366713565D-02  .654533505440D-05  .515371212959D+04
     .216000000000D+06 -.596046447754D-07 -.448998733502D+00 -.135973095894D-06
     .926441078310D+00  .235812500000D+03  .135458303264D+01 -.855142762986D-08
     .600024993449D-10  .100000000000D+01  .189200000000D+04  .000000000000D+00
     .240000000000D+01  .000000000000D+00 -.838190317154D-08  .190000000000D+02
     .208806000000D+06  .400000000000D+01
21 16  4 12 12  0  0.0 -.518757849932D-03 -.147792889038D-11  .000000000000D+00
     .740000000000D+02  .228125000000D+01  .511557022689D-08 -.133057141066D+01
     .678002834320D-06  .233422616730D-01  .839866697788D-05  .515363620949D+04
     .216000000000D+06  .165775418282D-06 -.143947013132D+01  .551342964172D-06
     .935713907440D+00  .203562500000D+03 -.180365716641D+01 -.835677666472D-08
     .463947896721D-09  .100000000000D+01  .189200000000D+04  .000000000000D+00
     .240000000000D+01  .000000000000D+00 -.102445483208D-07  .740000000000D+02
     .208806000000D+06  .400000000000D+01
22 16  4 12 12  0  0.0  .364077277482D-03 -.727595761418D-11  .000000000000D+00
     .430000000000D+02 -.106875000000D+02  .582881422208D-08  .227831845859D+01
    -.640749931335D-06  .786624860484D-02  .646896660328D-05  .515504330063D+04
     .216000000000D+06  .279396772385D-07 -.396394284030D+00 -.156462192535D-06
     .923089413031D+00  .237031250000D+03 -.199425015095D+01 -.851142596363D-08
    -.596453416107D-10  .100000000000D+01  .189200000000D+04  .000000000000D+00
     .240000000000D+01  .000000000000D+00 -.176951289177D-07  .430000000000D+02
     .208806000000D+06  .400000000000D+01
23 16  4 12 12  0  0.0 -.169035978615D-03 -.170530256582D-11  .000000000000D+00
     .280000000000D+02  .353750000000D+02  .499163649312D-08  .123128186301D+01
     .211596488953D-05  .107259979704D-01  .993348658085D-05  .515369919395D+04
     .216000000000D+06  .130385160446D-07  .679440992096D+00  .167638063431D-06
     .946511710172D+00  .183625000000D+03 -.259624486411D+01 -.830034574272D-08
    -.487163149443D-09  .100000000000D+01  .189200000000D+04  .000000000000D+00
     .240000000000D+01  .000000000000D+00 -.200234353542D-07  .280000000000D+02
     .208806000000D+06  .400000000000D+01
25 16  4 12 12  0  0.0 -.151642598212D-03 -.704858393874D-11  .000000000000D+00
     .940000000000D+02 -.125937500000D+02  .416481633846D-08 -.133693130657D+01
    -.661239027977D-06  .550617498811D-02  .346638262272D-05  .515376953697D+04
     .216000000000D+06  .176951289177D-06  .277696202078D+01 -.223517417908D-07
     .978732488182D+00  .322062500000D+03  .741069723843D+00 -.811390940547D-08
    -.106790162525D-09  .100000000000D+01  .189200000000D+04  .000000000000D+00
     .340000000000D+01  .000000000000D+00  .558793544769D-08  .940000000000D+02
     .208806000000D+06  .400000000000D+01
27 16  4 12 12  0  0.0  .814297236502D-04  .386535248253D-11  .000000000000D+00
     .300000000000D+02 -.738750000000D+02  .410731394325D-08  .256349386753D+01
    -.378116965294D-05  .352649891283D-02  .885315239429D-05  .515364147377D+04
     .216000000000D+06 -.614672899246D-07 -.246510802583D+01  .931322574615D-08
     .970952531842D+00  .212468750000D+03  .232050571712D+00 -.790890086604D-08
     .900037490174D-10  .100000000000D+01  .189200000000D+04  .000000000000D+00
     .240000000000D+01  .000000000000D+00  .139698386192D-08  .300000000000D+02
     .208806000000D+06  .400000000000D+01
28 16  4 12 12  0  0.0  .515649095178D-03  .261479726760D-11  .000000000000D+00
     .270000000000D+02 -.268750000000D+02  .385658921385D-08 -.298728166564D+01
    -.135041773319D-05  .197779559530D-01  .327080488205D-05  .515362603378D+04
     .216000000000D+06  .163912773132D-06  .285108320395D+01 -.558793544769D-08
     .989718634302D+00  .331000000000D+03 -.161810762705D+01 -.770353516888D-08
    -.789318592573D-10  .100000000000D+01  .189200000000D+04  .000000000000D+00
     .240000000000D+01  .000000000000D+00 -.111758708954D-07  .270000000000D+02
     .208806000000D+06  .400000000000D+01
29 16  4 12 12  0  0.0  .656844582409D-03  .227373675443D-12  .000000000000D+00
     .800000000000D+01 -.832187500000D+02  .394659296287D-08 -.131555308634D+01
    -.433437526226D-05  .106441020034D-02  .849924981594D-05  .515359041786D+04
     .216000000000D+06 -.987201929092D-07 -.240580445900D+01  .186264514923D-08
     .976932421614D+00  .225593750000D+03 -.397541674086D+00 -.777925260852D-08
     .116076263614D-09  .100000000000D+01  .189200000000D+04  .000000000000D+00
     .240000000000D+01  .000000000000D+00 -.102445483208D-07  .800000000000D+01
     .208806000000D+06  .400000000000D+01
30 16  4 12 12  0  0.0  .115926843137D-03  .352429196937D-11  .000000000000D+00
     .390000000000D+02  .967500000000D+02  .464805075283D-08 -.158383598273D+00
     .476464629173D-05  .191244133748D-02  .689923763275D-05  .515362075806D+04
     .216000000000D+06  .670552253723D-07  .179685764167D+01 -.931322574615D-08
     .952387190018D+00  .242312500000D+03  .297493519589D+01 -.829855995405D-08
    -.453590322429D-10  .100000000000D+01  .189200000000D+04  .000000000000D+00
     .240000000000D+01  .000000000000D+00  .325962901115D-08  .390000000000D+02
     .208806000000D+06  .400000000000D+01
31 16  4 12 12  0  0.0  .274098478258D-03 -.181898940355D-11  .000000000000D+00
     .460000000000D+02  .740000000000D+02  .423267630796D-08 -.400560801994D+00
     .385940074921D-05  .821490364615D-02  .661611557007D-05  .515373034477D+04
     .216000000000D+06  .521540641785D-07  .176121009509D+01 -.143423676491D-06
     .971424001080D+00  .260343750000D+03 -.404191944605D+00 -.813783897366D-08
    -.200008331150D-10  .100000000000D+01  .189200000000D+04  .000000000000D+00
     .240000000000D+01  .000000000000D+00 -.135041773319D-07  .460000000000D+02
     .208806000000D+06  .400000000000D+01
32 16  4 12 12  0  0.0  .612903386354D-05 -.295585778076D-11  .000000000000D+00
     .150000000000D+02  .281562500000D+02  .453876048616D-08  .293677481248D+01
     .145100057125D-05  .170573475771D-03  .988878309727D-05  .515359152222D+04
     .216000000000D+06 -.521540641785D-07  .674957184756D+00 -.186264514923D-08
     .960175682486D+00  .187843750000D+03 -.244607331551D+01 -.798461830569D-08
    -.377158567311D-09  .100000000000D+01  .189200000000D+04  .000000000000D+00
     .240000000000D+01  .000000000000D+00  .465661287308D-09  .150000000000D+02
     .208806000000D+06  .400000000000D+01
25 16  4 12 11 59 44.0 -.151642132550D-03 -.704858393874D-11  .000000000000D+00
     .370000000000D+02 -.125937500000D+02  .416481633846D-08 -.133926510417D+01
    -.661239027977D-06  .550616683904D-02  .346638262272D-05  .515376953316D+04
     .215984000000D+06  .176951289177D-06  .277696216854D+01 -.223517417908D-07
     .978732499886D+00  .322062500000D+03  .741069911096D+00 -.811390940547D-08
    -.106790162525D-09  .100000000000D+01  .189200000000D+04  .000000000000D+00
     .240000000000D+01  .000000000000D+00  .558793544769D-08  .370000000000D+02
     .211866000000D+06  .400000000000D+01
